[{"OBJECT_NAME":"ONEWEB-0558","OBJECT_ID":"2023-043P","EPOCH":"2026-03-09T21:40:30.467424","MEAN_MOTION":13.21825844,"ECCENTRICITY":0.00021421,"INCLINATION":87.9165,"RA_OF_ASC_NODE":263.7771,"ARG_OF_PERICENTER":96.0265,"MEAN_ANOMALY":264.1114,"EPHEMERIS_TYPE":0,"CLASSIFICATION_TYPE":"U","NORAD_CAT_ID":56059,"ELEMENT_SET_NO":999,"REV_AT_EPOCH":14512,"BSTAR":-0.00018808046,"MEAN_MOTION_DOT":-6.5e-7,"MEAN_MOTION_DDOT":0},{"OBJECT_NAME":"OSCAR 30 DEB","OBJECT_ID":"1985-066H","EPOCH":"2026-03-09T22:59:08.932128","MEAN_MOTION":13.51741247,"ECCENTRICITY":0.01487251,"INCLINATION":90.1664,"RA_OF_ASC_NODE":68.3325,"ARG_OF_PERICENTER":100.9381,"MEAN_ANOMALY":293.3903,"EPHEMERIS_TYPE":0,"CLASSIFICATION_TYPE":"U","NORAD_CAT_ID":21878,"ELEMENT_SET_NO":999,"REV_AT_EPOCH":98535,"BSTAR":0.0015825479,"MEAN_MOTION_DOT":1.119e-5,"MEAN_MOTION_DDOT":0}]
